TIANMU-1 10             
1 57402U 23101D   26115.81137700  .00006772  00000+0  24071-3 0  9995
2 57402  97.2666 167.9096 0002945 342.1515  17.9621 15.29315937153634
FENGYUN 3F              
1 57490U 23111A   26115.82972750  .00000030  00000+0  34654-4 0  9996
2 57490  98.6861 186.8082 0000892 113.0456 247.0815 14.19929478141431
ARKTIKA-M 2             
1 58584U 23198A   26110.92958556  .00000217  00000+0  00000+0 0  9990
2 58584  63.2192 160.7194 6953303 267.0904  18.4710  2.00586979 17173
TIANMU-1 11             
1 58645U 23205A   26115.81613762  .00005699  00000+0  22127-3 0  9994
2 58645  97.3491 138.2085 0009049 177.2223 182.9068 15.26439324129539
TIANMU-1 12             
1 58646U 23205B   26115.78497515  .00005733  00000+0  22300-3 0  9999
2 58646  97.3479 137.9449 0007889 159.0441 201.1122 15.26384277129515
TIANMU-1 13             
1 58647U 23205C   26115.81428613  .00006032  00000+0  23407-3 0  9999
2 58647  97.3507 138.2333 0008739 143.0860 217.0982 15.26437768129511
TIANMU-1 14             
1 58648U 23205D   26115.79966705  .00006037  00000+0  23441-3 0  9999
2 58648  97.3442 137.4453 0009352 147.8257 212.3554 15.26409449129516
TIANMU-1 19             
1 58660U 23208A   26115.80911302  .00009401  00000+0  31880-3 0  9995
2 58660  97.4436 231.8940 0006263 133.6324 226.5438 15.30736266129311
TIANMU-1 20             
1 58661U 23208B   26115.82229019  .00009320  00000+0  30455-3 0  9992
2 58661  97.4377 232.4886 0008263 143.0072 217.1741 15.31924721129408
TIANMU-1 21             
1 58662U 23208C   26115.82175973  .00011056  00000+0  33713-3 0  9991
2 58662  97.4434 234.9488 0008253 137.9359 222.2519 15.34090266129532
TIANMU-1 22             
1 58663U 23208D   26115.83967581  .00008354  00000+0  28771-3 0  9992
2 58663  97.4432 231.9026 0004630 149.5874 210.5636 15.30282700129321
TIANMU-1 15             
1 58700U 24004A   26115.86224590  .00006258  00000+0  24277-3 0  9996
2 58700  97.4682 302.0617 0007543 161.9419 198.2089 15.26449135127790
TIANMU-1 16             
1 58701U 24004B   26115.84459826  .00006196  00000+0  24019-3 0  9992
2 58701  97.4626 301.3345 0005920 161.7219 198.4234 15.26487346127792
TIANMU-1 17             
1 58702U 24004C   26115.82858409  .00005797  00000+0  22597-3 0  9996
2 58702  97.4655 301.7871 0005690 166.5421 193.5970 15.26334993127786
TIANMU-1 18             
1 58703U 24004D   26115.81296580  .00005966  00000+0  23170-3 0  9998
2 58703  97.4674 301.9961 0004589 157.4163 202.7278 15.26448790127783
INSAT-3DS               
1 58990U 24033A   26115.79724567 -.00000169  00000+0  00000+0 0  9990
2 58990   0.0894  86.6147 0001906 297.9188 198.3543  1.00270706 46541
METEOR-M2 4             
1 59051U 24039A   26115.84887733  .00000011  00000+0  24453-4 0  9994
2 59051  98.6975  75.8166 0006491 330.1006  29.9800 14.22423806111825
