[{"OBJECT_NAME":"TIANMU-1 10","OBJECT_ID":"2023-101D","EPOCH":"2026-04-25T19:28:22.972800","MEAN_MOTION":15.29315937,"ECCENTRICITY":0.0002945,"INCLINATION":97.2666,"RA_OF_ASC_NODE":167.9096,"ARG_OF_PERICENTER":342.1515,"MEAN_ANOMALY":17.9621,"EPHEMERIS_TYPE":0,"CLASSIFICATION_TYPE":"U","NORAD_CAT_ID":57402,"ELEMENT_SET_NO":999,"REV_AT_EPOCH":15363,"BSTAR":0.00024071,"MEAN_MOTION_DOT":6.772e-5,"MEAN_MOTION_DDOT":0},{"OBJECT_NAME":"FENGYUN 3F","OBJECT_ID":"2023-111A","EPOCH":"2026-04-25T19:54:48.456000","MEAN_MOTION":14.19929478,"ECCENTRICITY":8.92e-5,"INCLINATION":98.6861,"RA_OF_ASC_NODE":186.8082,"ARG_OF_PERICENTER":113.0456,"MEAN_ANOMALY":247.0815,"EPHEMERIS_TYPE":0,"CLASSIFICATION_TYPE":"U","NORAD_CAT_ID":57490,"ELEMENT_SET_NO":999,"REV_AT_EPOCH":14143,"BSTAR":3.4654e-5,"MEAN_MOTION_DOT":3.0e-7,"MEAN_MOTION_DDOT":0},{"OBJECT_NAME":"ARKTIKA-M 2","OBJECT_ID":"2023-198A","EPOCH":"2026-04-20T22:18:36.192384","MEAN_MOTION":2.00586979,"ECCENTRICITY":0.69533035,"INCLINATION":63.2192,"RA_OF_ASC_NODE":160.7194,"ARG_OF_PERICENTER":267.0904,"MEAN_ANOMALY":18.471,"EPHEMERIS_TYPE":0,"CLASSIFICATION_TYPE":"U","NORAD_CAT_ID":58584,"ELEMENT_SET_NO":999,"REV_AT_EPOCH":1717,"BSTAR":0,"MEAN_MOTION_DOT":2.17e-6,"MEAN_MOTION_DDOT":0},{"OBJECT_NAME":"TIANMU-1 11","OBJECT_ID":"2023-205A","EPOCH":"2026-04-25T19:35:14.290368","MEAN_MOTION":15.26439324,"ECCENTRICITY":0.0009049,"INCLINATION":97.3491,"RA_OF_ASC_NODE":138.2085,"ARG_OF_PERICENTER":177.2223,"MEAN_ANOMALY":182.9068,"EPHEMERIS_TYPE":0,"CLASSIFICATION_TYPE":"U","NORAD_CAT_ID":58645,"ELEMENT_SET_NO":999,"REV_AT_EPOCH":12953,"BSTAR":0.00022127,"MEAN_MOTION_DOT":5.699e-5,"MEAN_MOTION_DDOT":0},{"OBJECT_NAME":"TIANMU-1 12","OBJECT_ID":"2023-205B","EPOCH":"2026-04-25T18:50:21.852960","MEAN_MOTION":15.26384277,"ECCENTRICITY":0.0007889,"INCLINATION":97.3479,"RA_OF_ASC_NODE":137.9449,"ARG_OF_PERICENTER":159.0441,"MEAN_ANOMALY":201.1122,"EPHEMERIS_TYPE":0,"CLASSIFICATION_TYPE":"U","NORAD_CAT_ID":58646,"ELEMENT_SET_NO":999,"REV_AT_EPOCH":12951,"BSTAR":0.000223,"MEAN_MOTION_DOT":5.733e-5,"MEAN_MOTION_DDOT":0},{"OBJECT_NAME":"TIANMU-1 13","OBJECT_ID":"2023-205C","EPOCH":"2026-04-25T19:32:34.321632","MEAN_MOTION":15.26437768,"ECCENTRICITY":0.0008739,"INCLINATION":97.3507,"RA_OF_ASC_NODE":138.2333,"ARG_OF_PERICENTER":143.086,"MEAN_ANOMALY":217.0982,"EPHEMERIS_TYPE":0,"CLASSIFICATION_TYPE":"U","NORAD_CAT_ID":58647,"ELEMENT_SET_NO":999,"REV_AT_EPOCH":12951,"BSTAR":0.00023407,"MEAN_MOTION_DOT":6.032e-5,"MEAN_MOTION_DDOT":0},{"OBJECT_NAME":"TIANMU-1 14","OBJECT_ID":"2023-205D","EPOCH":"2026-04-25T19:11:31.233120","MEAN_MOTION":15.26409449,"ECCENTRICITY":0.0009352,"INCLINATION":97.3442,"RA_OF_ASC_NODE":137.4453,"ARG_OF_PERICENTER":147.8257,"MEAN_ANOMALY":212.3554,"EPHEMERIS_TYPE":0,"CLASSIFICATION_TYPE":"U","NORAD_CAT_ID":58648,"ELEMENT_SET_NO":999,"REV_AT_EPOCH":12951,"BSTAR":0.00023441,"MEAN_MOTION_DOT":6.037e-5,"MEAN_MOTION_DDOT":0},{"OBJECT_NAME":"TIANMU-1 19","OBJECT_ID":"2023-208A","EPOCH":"2026-04-25T19:25:07.364928","MEAN_MOTION":15.30736266,"ECCENTRICITY":0.0006263,"INCLINATION":97.4436,"RA_OF_ASC_NODE":231.894,"ARG_OF_PERICENTER":133.6324,"MEAN_ANOMALY":226.5438,"EPHEMERIS_TYPE":0,"CLASSIFICATION_TYPE":"U","NORAD_CAT_ID":58660,"ELEMENT_SET_NO":999,"REV_AT_EPOCH":12931,"BSTAR":0.0003188,"MEAN_MOTION_DOT":9.401e-5,"MEAN_MOTION_DDOT":0},{"OBJECT_NAME":"TIANMU-1 20","OBJECT_ID":"2023-208B","EPOCH":"2026-04-25T19:44:05.872416","MEAN_MOTION":15.31924721,"ECCENTRICITY":0.0008263,"INCLINATION":97.4377,"RA_OF_ASC_NODE":232.4886,"ARG_OF_PERICENTER":143.0072,"MEAN_ANOMALY":217.1741,"EPHEMERIS_TYPE":0,"CLASSIFICATION_TYPE":"U","NORAD_CAT_ID":58661,"ELEMENT_SET_NO":999,"REV_AT_EPOCH":12940,"BSTAR":0.00030455,"MEAN_MOTION_DOT":9.32e-5,"MEAN_MOTION_DDOT":0},{"OBJECT_NAME":"TIANMU-1 21","OBJECT_ID":"2023-208C","EPOCH":"2026-04-25T19:43:20.040672","MEAN_MOTION":15.34090266,"ECCENTRICITY":0.0008253,"INCLINATION":97.4434,"RA_OF_ASC_NODE":234.9488,"ARG_OF_PERICENTER":137.9359,"MEAN_ANOMALY":222.2519,"EPHEMERIS_TYPE":0,"CLASSIFICATION_TYPE":"U","NORAD_CAT_ID":58662,"ELEMENT_SET_NO":999,"REV_AT_EPOCH":12953,"BSTAR":0.00033713,"MEAN_MOTION_DOT":0.00011056,"MEAN_MOTION_DDOT":0},{"OBJECT_NAME":"TIANMU-1 22","OBJECT_ID":"2023-208D","EPOCH":"2026-04-25T20:09:07.989984","MEAN_MOTION":15.302827,"ECCENTRICITY":0.000463,"INCLINATION":97.4432,"RA_OF_ASC_NODE":231.9026,"ARG_OF_PERICENTER":149.5874,"MEAN_ANOMALY":210.5636,"EPHEMERIS_TYPE":0,"CLASSIFICATION_TYPE":"U","NORAD_CAT_ID":58663,"ELEMENT_SET_NO":999,"REV_AT_EPOCH":12932,"BSTAR":0.00028771,"MEAN_MOTION_DOT":8.354e-5,"MEAN_MOTION_DDOT":0},{"OBJECT_NAME":"TIANMU-1 15","OBJECT_ID":"2024-004A","EPOCH":"2026-04-25T20:41:38.045760","MEAN_MOTION":15.26449135,"ECCENTRICITY":0.0007543,"INCLINATION":97.4682,"RA_OF_ASC_NODE":302.0617,"ARG_OF_PERICENTER":161.9419,"MEAN_ANOMALY":198.2089,"EPHEMERIS_TYPE":0,"CLASSIFICATION_TYPE":"U","NORAD_CAT_ID":58700,"ELEMENT_SET_NO":999,"REV_AT_EPOCH":12779,"BSTAR":0.00024277,"MEAN_MOTION_DOT":6.258e-5,"MEAN_MOTION_DDOT":0},{"OBJECT_NAME":"TIANMU-1 16","OBJECT_ID":"2024-004B","EPOCH":"2026-04-25T20:16:13.289664","MEAN_MOTION":15.26487346,"ECCENTRICITY":0.000592,"INCLINATION":97.4626,"RA_OF_ASC_NODE":301.3345,"ARG_OF_PERICENTER":161.7219,"MEAN_ANOMALY":198.4234,"EPHEMERIS_TYPE":0,"CLASSIFICATION_TYPE":"U","NORAD_CAT_ID":58701,"ELEMENT_SET_NO":999,"REV_AT_EPOCH":12779,"BSTAR":0.00024019,"MEAN_MOTION_DOT":6.196e-5,"MEAN_MOTION_DDOT":0},{"OBJECT_NAME":"TIANMU-1 17","OBJECT_ID":"2024-004C","EPOCH":"2026-04-25T19:53:09.665376","MEAN_MOTION":15.26334993,"ECCENTRICITY":0.000569,"INCLINATION":97.4655,"RA_OF_ASC_NODE":301.7871,"ARG_OF_PERICENTER":166.5421,"MEAN_ANOMALY":193.597,"EPHEMERIS_TYPE":0,"CLASSIFICATION_TYPE":"U","NORAD_CAT_ID":58702,"ELEMENT_SET_NO":999,"REV_AT_EPOCH":12778,"BSTAR":0.00022597,"MEAN_MOTION_DOT":5.797e-5,"MEAN_MOTION_DDOT":0},{"OBJECT_NAME":"TIANMU-1 18","OBJECT_ID":"2024-004D","EPOCH":"2026-04-25T19:30:40.245120","MEAN_MOTION":15.2644879,"ECCENTRICITY":0.0004589,"INCLINATION":97.4674,"RA_OF_ASC_NODE":301.9961,"ARG_OF_PERICENTER":157.4163,"MEAN_ANOMALY":202.7278,"EPHEMERIS_TYPE":0,"CLASSIFICATION_TYPE":"U","NORAD_CAT_ID":58703,"ELEMENT_SET_NO":999,"REV_AT_EPOCH":12778,"BSTAR":0.0002317,"MEAN_MOTION_DOT":5.966e-5,"MEAN_MOTION_DDOT":0},{"OBJECT_NAME":"INSAT-3DS","OBJECT_ID":"2024-033A","EPOCH":"2026-04-25T19:08:02.025888","MEAN_MOTION":1.00270706,"ECCENTRICITY":0.0001906,"INCLINATION":0.0894,"RA_OF_ASC_NODE":86.6147,"ARG_OF_PERICENTER":297.9188,"MEAN_ANOMALY":198.3543,"EPHEMERIS_TYPE":0,"CLASSIFICATION_TYPE":"U","NORAD_CAT_ID":58990,"ELEMENT_SET_NO":999,"REV_AT_EPOCH":4654,"BSTAR":0,"MEAN_MOTION_DOT":-1.69e-6,"MEAN_MOTION_DDOT":0},{"OBJECT_NAME":"METEOR-M2 4","OBJECT_ID":"2024-039A","EPOCH":"2026-04-25T20:22:23.001312","MEAN_MOTION":14.22423806,"ECCENTRICITY":0.0006491,"INCLINATION":98.6975,"RA_OF_ASC_NODE":75.8166,"ARG_OF_PERICENTER":330.1006,"MEAN_ANOMALY":29.98,"EPHEMERIS_TYPE":0,"CLASSIFICATION_TYPE":"U","NORAD_CAT_ID":59051,"ELEMENT_SET_NO":999,"REV_AT_EPOCH":11182,"BSTAR":2.4453e-5,"MEAN_MOTION_DOT":1.1e-7,"MEAN_MOTION_DDOT":0}]
